ORBCOMM-X               
1 21576U 91050C   24187.45873259  .00000509  00000+0  16641-3 0  9995
2 21576  98.3890 254.3888 0004458 140.8654 219.2859 14.42576942732111
ORBCOMM FM01            
1 23545U 95017A   24187.51448245  .00005401  00000+0  70816-3 0  9990
2 23545  69.9650 212.9009 0003922 166.3743 193.7513 14.80859252561011
ORBCOMM FM02            
1 23546U 95017B   24187.55742990  .00006945  00000+0  91424-3 0  9991
2 23546  69.9673 232.3111 0005234 145.1911 214.9582 14.80535765560669
ORBCOMM FM08            
1 25112U 97084A   24187.55449409  .00001667  00000+0  53661-3 0  9994
2 25112  45.0138 228.4068 0009500 293.3722  66.6128 14.42876134391255
ORBCOMM FM10            
1 25113U 97084B   24187.56535300  .00001880  00000+0  60111-3 0  9997
2 25113  45.0141 230.2600 0007383 270.9967  89.0038 14.42778209566406
ORBCOMM FM11            
1 25114U 97084C   24187.51973269  .00001657  00000+0  53639-3 0  9992
2 25114  45.0136 230.5938 0008122 270.7572  89.2347 14.42643265391369
ORBCOMM FM12            
1 25115U 97084D   24187.55019963  .00001541  00000+0  50225-3 0  9999
2 25115  45.0143 230.1635 0007151 271.4482  88.5549 14.42605748391165
ORBCOMM FM09            
1 25116U 97084E   24187.56293258  .00001591  00000+0  51762-3 0  9994
2 25116  45.0148 230.8065 0008064 260.3630  99.6310 14.42570633391377
